{
  "type": "FeatureCollection",
  "features": [
    {
      "type": "Feature",
      "properties": {
        "norad_id": 32130,
        "name": "FENGYUN 1C DEB",
        "group": "fengyun-1c-debris",
        "lat": -71.885475634853,
        "lon": 179.3798462286105,
        "alt_km": 736.8410272753745,
        "timestamp": "2025-12-10T07:43:55.064734+00:00",
        "meta_object_name": "FENGYUN 1C DEB",
        "meta_object_id": "1999-025CRY",
        "meta_epoch": "2025-12-08T04:17:13.347744",
        "meta_mean_motion": 14.37529409,
        "meta_eccentricity": 0.00826658,
        "meta_inclination": 98.9036,
        "meta_ra_of_asc_node": 148.5278,
        "meta_arg_of_pericenter": 343.691,
        "meta_mean_anomaly": 16.1618,
        "meta_ephemeris_type": 0,
        "meta_classification_type": "U",
        "meta_norad_cat_id": 32130,
        "meta_element_set_no": 999,
        "meta_rev_at_epoch": 96169,
        "meta_bstar": 0.00073105734,
        "meta_mean_motion_dot": 2.23e-05,
        "meta_mean_motion_ddot": 0,
        "tle_line1": "1 32130U 99025CRY 25342.17862671  .00002230  00000+0  73106-3 0  9994",
        "tle_line2": "2 32130  98.9036 148.5278 0082665 343.6910  16.1618 14.37529409961692"
      },
      "geometry": {
        "type": "Point",
        "coordinates": [
          179.3798462286105,
          -71.885475634853
        ]
      }
    },
    {
      "type": "Feature",
      "properties": {
        "norad_id": 32133,
        "name": "FENGYUN 1C DEB",
        "group": "fengyun-1c-debris",
        "lat": 67.71472889177328,
        "lon": -173.13164012292472,
        "alt_km": 799.079792211749,
        "timestamp": "2025-12-10T07:43:55.064744+00:00",
        "meta_object_name": "FENGYUN 1C DEB",
        "meta_object_id": "1999-025CSB",
        "meta_epoch": "2025-12-09T10:53:35.052288",
        "meta_mean_motion": 14.18067625,
        "meta_eccentricity": 0.00363834,
        "meta_inclination": 98.4314,
        "meta_ra_of_asc_node": 344.8261,
        "meta_arg_of_pericenter": 110.071,
        "meta_mean_anomaly": 250.4388,
        "meta_ephemeris_type": 0,
        "meta_classification_type": "U",
        "meta_norad_cat_id": 32133,
        "meta_element_set_no": 999,
        "meta_rev_at_epoch": 94928,
        "meta_bstar": 0.00031196375,
        "meta_mean_motion_dot": 6.03e-06,
        "meta_mean_motion_ddot": 0,
        "tle_line1": "1 32133U 99025CSB 25343.45387792  .00000603  00000+0  31196-3 0  9990",
        "tle_line2": "2 32133  98.4314 344.8261 0036383 110.0710 250.4388 14.18067625949286"
      },
      "geometry": {
        "type": "Point",
        "coordinates": [
          -173.13164012292472,
          67.71472889177328
        ]
      }
    },
    {
      "type": "Feature",
      "properties": {
        "norad_id": 32134,
        "name": "FENGYUN 1C DEB",
        "group": "fengyun-1c-debris",
        "lat": -65.88158528356024,
        "lon": 7.316214925663904,
        "alt_km": 653.7908008344939,
        "timestamp": "2025-12-10T07:43:55.064754+00:00",
        "meta_object_name": "FENGYUN 1C DEB",
        "meta_object_id": "1999-025CSC",
        "meta_epoch": "2025-12-07T11:31:51.559104",
        "meta_mean_motion": 14.2152476,
        "meta_eccentricity": 0.02590088,
        "meta_inclination": 98.594,
        "meta_ra_of_asc_node": 344.8046,
        "meta_arg_of_pericenter": 278.9279,
        "meta_mean_anomaly": 238.3835,
        "meta_ephemeris_type": 0,
        "meta_classification_type": "U",
        "meta_norad_cat_id": 32134,
        "meta_element_set_no": 999,
        "meta_rev_at_epoch": 95072,
        "meta_bstar": 0.001182529,
        "meta_mean_motion_dot": 3.592e-05,
        "meta_mean_motion_ddot": 0,
        "tle_line1": "1 32134U 99025CSC 25341.48045786  .00003592  00000+0  11825-2 0  9992",
        "tle_line2": "2 32134  98.5940 344.8046 0259008 278.9279 238.3835 14.21524760950724"
      },
      "geometry": {
        "type": "Point",
        "coordinates": [
          7.316214925663904,
          -65.88158528356024
        ]
      }
    },
    {
      "type": "Feature",
      "properties": {
        "norad_id": 32137,
        "name": "FENGYUN 1C DEB",
        "group": "fengyun-1c-debris",
        "lat": -81.42084659490327,
        "lon": -148.4859423148733,
        "alt_km": 721.9159890705214,
        "timestamp": "2025-12-10T07:43:55.064764+00:00",
        "meta_object_name": "FENGYUN 1C DEB",
        "meta_object_id": "1999-025CSF",
        "meta_epoch": "2025-12-06T14:58:18.861024",
        "meta_mean_motion": 14.81103576,
        "meta_eccentricity": 0.01882049,
        "meta_inclination": 98.4431,
        "meta_ra_of_asc_node": 107.5404,
        "meta_arg_of_pericenter": 53.6795,
        "meta_mean_anomaly": 308.1629,
        "meta_ephemeris_type": 0,
        "meta_classification_type": "U",
        "meta_norad_cat_id": 32137,
        "meta_element_set_no": 999,
        "meta_rev_at_epoch": 66640,
        "meta_bstar": 0.0012837364,
        "meta_mean_motion_dot": 0.00013499,
        "meta_mean_motion_ddot": 0,
        "tle_line1": "1 32137U 99025CSF 25340.62382941  .00013499  00000+0  12837-2 0  9998",
        "tle_line2": "2 32137  98.4431 107.5404 0188204  53.6795 308.1629 14.81103576666403"
      },
      "geometry": {
        "type": "Point",
        "coordinates": [
          -148.4859423148733,
          -81.42084659490327
        ]
      }
    },
    {
      "type": "Feature",
      "properties": {
        "norad_id": 32141,
        "name": "FENGYUN 1C DEB",
        "group": "fengyun-1c-debris",
        "lat": -27.02812725730795,
        "lon": 162.31048968358448,
        "alt_km": 834.6059610915681,
        "timestamp": "2025-12-10T07:43:55.064775+00:00",
        "meta_object_name": "FENGYUN 1C DEB",
        "meta_object_id": "1999-025CSK",
        "meta_epoch": "2025-11-20T23:04:46.058016",
        "meta_mean_motion": 14.03501767,
        "meta_eccentricity": 0.00731678,
        "meta_inclination": 98.7436,
        "meta_ra_of_asc_node": 328.1999,
        "meta_arg_of_pericenter": 269.2169,
        "meta_mean_anomaly": 90.0615,
        "meta_ephemeris_type": 0,
        "meta_classification_type": "U",
        "meta_norad_cat_id": 32141,
        "meta_element_set_no": 999,
        "meta_rev_at_epoch": 94638,
        "meta_bstar": 0.00056632309,
        "meta_mean_motion_dot": 8.66e-06,
        "meta_mean_motion_ddot": 0,
        "tle_line1": "1 32141U 99025CSK 25324.96164419  .00000866  00000+0  56632-3 0  9996",
        "tle_line2": "2 32141  98.7436 328.1999 0073167 269.2169  90.0615 14.03501767946385"
      },
      "geometry": {
        "type": "Point",
        "coordinates": [
          162.31048968358448,
          -27.02812725730795
        ]
      }
    },
    {
      "type": "Feature",
      "properties": {
        "norad_id": 32143,
        "name": "FENGYUN 1C DEB",
        "group": "fengyun-1c-debris",
        "lat": 43.93588624599972,
        "lon": -47.04790494697243,
        "alt_km": 803.1252639753038,
        "timestamp": "2025-12-10T07:43:55.064785+00:00",
        "meta_object_name": "FENGYUN 1C DEB",
        "meta_object_id": "1999-025CSM",
        "meta_epoch": "2025-12-03T04:28:30.343584",
        "meta_mean_motion": 14.17959367,
        "meta_eccentricity": 0.01041232,
        "meta_inclination": 98.5963,
        "meta_ra_of_asc_node": 314.4234,
        "meta_arg_of_pericenter": 136.0042,
        "meta_mean_anomaly": 224.9481,
        "meta_ephemeris_type": 0,
        "meta_classification_type": "U",
        "meta_norad_cat_id": 32143,
        "meta_element_set_no": 999,
        "meta_rev_at_epoch": 95798,
        "meta_bstar": 0.00020859227,
        "meta_mean_motion_dot": 4.09e-06,
        "meta_mean_motion_ddot": 0,
        "tle_line1": "1 32143U 99025CSM 25337.18646231  .00000409  00000+0  20859-3 0  9998",
        "tle_line2": "2 32143  98.5963 314.4234 0104123 136.0042 224.9481 14.17959367957983"
      },
      "geometry": {
        "type": "Point",
        "coordinates": [
          -47.04790494697243,
          43.93588624599972
        ]
      }
    },
    {
      "type": "Feature",
      "properties": {
        "norad_id": 32150,
        "name": "FENGYUN 1C DEB",
        "group": "fengyun-1c-debris",
        "lat": -47.20534718458086,
        "lon": 176.8327313455137,
        "alt_km": 805.6737260505042,
        "timestamp": "2025-12-10T07:43:55.064795+00:00",
        "meta_object_name": "FENGYUN 1C DEB",
        "meta_object_id": "1999-025CSU",
        "meta_epoch": "2025-12-05T08:19:59.789856",
        "meta_mean_motion": 14.60648055,
        "meta_eccentricity": 0.01718442,
        "meta_inclination": 99.1916,
        "meta_ra_of_asc_node": 1.3864,
        "meta_arg_of_pericenter": 89.9667,
        "meta_mean_anomaly": 272.1222,
        "meta_ephemeris_type": 0,
        "meta_classification_type": "U",
        "meta_norad_cat_id": 32150,
        "meta_element_set_no": 999,
        "meta_rev_at_epoch": 97598,
        "meta_bstar": 0.00021099285,
        "meta_mean_motion_dot": 1.198e-05,
        "meta_mean_motion_ddot": 0,
        "tle_line1": "1 32150U 99025CSU 25339.34721979  .00001198  00000+0  21099-3 0  9992",
        "tle_line2": "2 32150  99.1916   1.3864 0171844  89.9667 272.1222 14.60648055975985"
      },
      "geometry": {
        "type": "Point",
        "coordinates": [
          176.8327313455137,
          -47.20534718458086
        ]
      }
    }
  ]
}